{
  "type": "FeatureCollection",
  "features": [
    {
      "type": "Feature",
      "properties": {
        "norad_id": 66397,
        "name": "STARLINK-35510",
        "group": "last-30-days",
        "lat": -11.669391095059181,
        "lon": -79.87218999847903,
        "alt_km": 451.33221571337253,
        "timestamp": "2025-12-07T11:27:48.739067+00:00",
        "meta_object_name": "STARLINK-35510",
        "meta_object_id": "2025-257T",
        "meta_epoch": "2025-12-07T00:00:02.000160",
        "meta_mean_motion": 15.41453584,
        "meta_eccentricity": 0.00013142,
        "meta_inclination": 53.1594,
        "meta_ra_of_asc_node": 291.2889,
        "meta_arg_of_pericenter": 103.4519,
        "meta_mean_anomaly": 112.1091,
        "meta_ephemeris_type": 0,
        "meta_classification_type": "U",
        "meta_norad_cat_id": 66397,
        "meta_element_set_no": 999,
        "meta_rev_at_epoch": 557,
        "meta_bstar": -0.059900281,
        "meta_mean_motion_dot": -0.02277458,
        "meta_mean_motion_ddot": 0,
        "tle_line1": "1 66397U 25257T   25341.00002315 -.02277458  00000+0 -59900-1 0  9998",
        "tle_line2": "2 66397  53.1594 291.2889 0001314 103.4519 112.1091 15.41453584  5573"
      },
      "geometry": {
        "type": "Point",
        "coordinates": [
          -79.87218999847903,
          -11.669391095059181
        ]
      }
    },
    {
      "type": "Feature",
      "properties": {
        "norad_id": 66398,
        "name": "STARLINK-35642",
        "group": "last-30-days",
        "lat": 17.40523280545966,
        "lon": -57.44654173868526,
        "alt_km": 423.12667562001025,
        "timestamp": "2025-12-07T11:27:48.739077+00:00",
        "meta_object_name": "STARLINK-35642",
        "meta_object_id": "2025-257U",
        "meta_epoch": "2025-12-06T04:22:47.917920",
        "meta_mean_motion": 15.48674632,
        "meta_eccentricity": 9.202e-05,
        "meta_inclination": 53.1592,
        "meta_ra_of_asc_node": 295.1428,
        "meta_arg_of_pericenter": 161.1871,
        "meta_mean_anomaly": 198.9172,
        "meta_ephemeris_type": 0,
        "meta_classification_type": "U",
        "meta_norad_cat_id": 66398,
        "meta_element_set_no": 999,
        "meta_rev_at_epoch": 536,
        "meta_bstar": -0.0089627224,
        "meta_mean_motion_dot": -0.00460233,
        "meta_mean_motion_ddot": 0,
        "tle_line1": "1 66398U 25257U   25340.18249905 -.00460233  00000+0 -89627-2 0  9998",
        "tle_line2": "2 66398  53.1592 295.1428 0000920 161.1871 198.9172 15.48674632  5363"
      },
      "geometry": {
        "type": "Point",
        "coordinates": [
          -57.44654173868526,
          17.40523280545966
        ]
      }
    },
    {
      "type": "Feature",
      "properties": {
        "norad_id": 66399,
        "name": "STARLINK-35657",
        "group": "last-30-days",
        "lat": -10.274103412286916,
        "lon": -78.77910739454583,
        "alt_km": 451.6963832750216,
        "timestamp": "2025-12-07T11:27:48.739088+00:00",
        "meta_object_name": "STARLINK-35657",
        "meta_object_id": "2025-257V",
        "meta_epoch": "2025-12-07T00:00:02.000160",
        "meta_mean_motion": 15.41047321,
        "meta_eccentricity": 0.00012351,
        "meta_inclination": 53.1592,
        "meta_ra_of_asc_node": 291.2839,
        "meta_arg_of_pericenter": 99.8218,
        "meta_mean_anomaly": 118.02,
        "meta_ephemeris_type": 0,
        "meta_classification_type": "U",
        "meta_norad_cat_id": 66399,
        "meta_element_set_no": 999,
        "meta_rev_at_epoch": 557,
        "meta_bstar": -0.055178293,
        "meta_mean_motion_dot": -0.02054526,
        "meta_mean_motion_ddot": 0,
        "tle_line1": "1 66399U 25257V   25341.00002315 -.02054526  00000+0 -55178-1 0  9992",
        "tle_line2": "2 66399  53.1592 291.2839 0001235  99.8218 118.0200 15.41047321  5579"
      },
      "geometry": {
        "type": "Point",
        "coordinates": [
          -78.77910739454583,
          -10.274103412286916
        ]
      }
    },
    {
      "type": "Feature",
      "properties": {
        "norad_id": 66400,
        "name": "STARLINK-35667",
        "group": "last-30-days",
        "lat": 24.46910342784848,
        "lon": -51.106469737431695,
        "alt_km": 417.6753691364993,
        "timestamp": "2025-12-07T11:27:48.739098+00:00",
        "meta_object_name": "STARLINK-35667",
        "meta_object_id": "2025-257W",
        "meta_epoch": "2025-12-06T22:56:20.992992",
        "meta_mean_motion": 15.48637466,
        "meta_eccentricity": 0.00034264,
        "meta_inclination": 53.1592,
        "meta_ra_of_asc_node": 291.4379,
        "meta_arg_of_pericenter": 295.9123,
        "meta_mean_anomaly": 64.1532,
        "meta_ephemeris_type": 0,
        "meta_classification_type": "U",
        "meta_norad_cat_id": 66400,
        "meta_element_set_no": 999,
        "meta_rev_at_epoch": 548,
        "meta_bstar": 0.0026943412,
        "meta_mean_motion_dot": 0.0014875,
        "meta_mean_motion_ddot": 0,
        "tle_line1": "1 66400U 25257W   25340.95579853  .00148750  00000+0  26943-2 0  9992",
        "tle_line2": "2 66400  53.1592 291.4379 0003426 295.9123  64.1532 15.48637466  5482"
      },
      "geometry": {
        "type": "Point",
        "coordinates": [
          -51.106469737431695,
          24.46910342784848
        ]
      }
    },
    {
      "type": "Feature",
      "properties": {
        "norad_id": 66401,
        "name": "STARLINK-35668",
        "group": "last-30-days",
        "lat": 22.995063863496814,
        "lon": -52.499487261797405,
        "alt_km": 426.442085932149,
        "timestamp": "2025-12-07T11:27:48.739109+00:00",
        "meta_object_name": "STARLINK-35668",
        "meta_object_id": "2025-257X",
        "meta_epoch": "2025-12-06T08:00:01.999872",
        "meta_mean_motion": 15.49728436,
        "meta_eccentricity": 0.00015575,
        "meta_inclination": 53.1587,
        "meta_ra_of_asc_node": 294.4065,
        "meta_arg_of_pericenter": 90.2703,
        "meta_mean_anomaly": 39.9269,
        "meta_ephemeris_type": 0,
        "meta_classification_type": "U",
        "meta_norad_cat_id": 66401,
        "meta_element_set_no": 999,
        "meta_rev_at_epoch": 546,
        "meta_bstar": -0.033578695,
        "meta_mean_motion_dot": -0.01694206,
        "meta_mean_motion_ddot": 0,
        "tle_line1": "1 66401U 25257X   25340.33335648 -.01694206  00000+0 -33579-1 0  9994",
        "tle_line2": "2 66401  53.1587 294.4065 0001557  90.2703  39.9269 15.49728436  5469"
      },
      "geometry": {
        "type": "Point",
        "coordinates": [
          -52.499487261797405,
          22.995063863496814
        ]
      }
    },
    {
      "type": "Feature",
      "properties": {
        "norad_id": 66402,
        "name": "STARLINK-35644",
        "group": "last-30-days",
        "lat": 28.70474106795212,
        "lon": -46.8298447005658,
        "alt_km": 414.0775489008738,
        "timestamp": "2025-12-07T11:27:48.739120+00:00",
        "meta_object_name": "STARLINK-35644",
        "meta_object_id": "2025-257Y",
        "meta_epoch": "2025-12-06T05:53:33.843840",
        "meta_mean_motion": 15.49361286,
        "meta_eccentricity": 7.923e-05,
        "meta_inclination": 53.1581,
        "meta_ra_of_asc_node": 294.8244,
        "meta_arg_of_pericenter": 85.5717,
        "meta_mean_anomaly": 274.5382,
        "meta_ephemeris_type": 0,
        "meta_classification_type": "U",
        "meta_norad_cat_id": 66402,
        "meta_element_set_no": 999,
        "meta_rev_at_epoch": 537,
        "meta_bstar": 0.0018840832,
        "meta_mean_motion_dot": 0.00105964,
        "meta_mean_motion_ddot": 0,
        "tle_line1": "1 66402U 25257Y   25340.24553060  .00105964  00000+0  18841-2 0  9996",
        "tle_line2": "2 66402  53.1581 294.8244 0000792  85.5717 274.5382 15.49361286  5378"
      },
      "geometry": {
        "type": "Point",
        "coordinates": [
          -46.8298447005658,
          28.70474106795212
        ]
      }
    },
    {
      "type": "Feature",
      "properties": {
        "norad_id": 66403,
        "name": "STARLINK-35602",
        "group": "last-30-days",
        "lat": 29.75939448225302,
        "lon": -45.687766361898206,
        "alt_km": 414.50921052761714,
        "timestamp": "2025-12-07T11:27:48.739130+00:00",
        "meta_object_name": "STARLINK-35602",
        "meta_object_id": "2025-257Z",
        "meta_epoch": "2025-12-06T21:21:59.246784",
        "meta_mean_motion": 15.49399809,
        "meta_eccentricity": 0.00013178,
        "meta_inclination": 53.1591,
        "meta_ra_of_asc_node": 291.7386,
        "meta_arg_of_pericenter": 304.6024,
        "meta_mean_anomaly": 55.4861,
        "meta_ephemeris_type": 0,
        "meta_classification_type": "U",
        "meta_norad_cat_id": 66403,
        "meta_element_set_no": 999,
        "meta_rev_at_epoch": 547,
        "meta_bstar": 0.002137071,
        "meta_mean_motion_dot": 0.00120645,
        "meta_mean_motion_ddot": 0,
        "tle_line1": "1 66403U 25257Z   25340.89026906  .00120645  00000+0  21371-2 0  9997",
        "tle_line2": "2 66403  53.1591 291.7386 0001317 304.6024  55.4861 15.49399809  5474"
      },
      "geometry": {
        "type": "Point",
        "coordinates": [
          -45.687766361898206,
          29.75939448225302
        ]
      }
    }
  ]
}